[
  {
    "place_name": "Darwin",
    "state_code": "NT",
    "latitude": -12.4611,
    "longitude": 130.8418
  },
  {
    "place_name": "Darwin",
    "state_code": "NT",
    "latitude": -12.4611,
    "longitude": 130.8418
  },
  {
    "place_name": "Wagait Beach",
    "state_code": "NT",
    "latitude": -12.4348,
    "longitude": 130.7443
  },
  {
    "place_name": "Parap",
    "state_code": "NT",
    "latitude": -12.4305,
    "longitude": 130.8414
  },
  {
    "place_name": "Casuarina",
    "state_code": "NT",
    "latitude": -12.374,
    "longitude": 130.8822
  },
  {
    "place_name": "Tiwi",
    "state_code": "NT",
    "latitude": -12.3588,
    "longitude": 130.878
  },
  {
    "place_name": "Lyons",
    "state_code": "NT",
    "latitude": -12.3591,
    "longitude": 130.8885
  },
  {
    "place_name": "Nightcliff",
    "state_code": "NT",
    "latitude": -12.383,
    "longitude": 130.8517
  },
  {
    "place_name": "Brinkin",
    "state_code": "NT",
    "latitude": -12.3706,
    "longitude": 130.868
  },
  {
    "place_name": "Moil",
    "state_code": "NT",
    "latitude": -12.3885,
    "longitude": 130.8809
  },
  {
    "place_name": "Millner",
    "state_code": "NT",
    "latitude": -12.3919,
    "longitude": 130.8625
  },
  {
    "place_name": "Jingili",
    "state_code": "NT",
    "latitude": -12.3889,
    "longitude": 130.8728
  },
  {
    "place_name": "Rapid Creek",
    "state_code": "NT",
    "latitude": -12.3804,
    "longitude": 130.8592
  },
  {
    "place_name": "Alawa",
    "state_code": "NT",
    "latitude": -12.3795,
    "longitude": 130.8732
  },
  {
    "place_name": "Muirhead",
    "state_code": "NT",
    "latitude": -12.3586,
    "longitude": 130.8935
  },
  {
    "place_name": "Nakara",
    "state_code": "NT",
    "latitude": -12.3705,
    "longitude": 130.8773
  },
  {
    "place_name": "Wagaman",
    "state_code": "NT",
    "latitude": -12.3807,
    "longitude": 130.8854
  },
  {
    "place_name": "Coconut Grove",
    "state_code": "NT",
    "latitude": -12.396,
    "longitude": 130.8519
  },
  {
    "place_name": "Wanguri",
    "state_code": "NT",
    "latitude": -12.3713,
    "longitude": 130.8881
  },
  {
    "place_name": "Lee Point",
    "state_code": "NT",
    "latitude": -12.3415,
    "longitude": 130.8895
  },
  {
    "place_name": "Casuarina",
    "state_code": "NT",
    "latitude": -12.374,
    "longitude": 130.8822
  },
  {
    "place_name": "Sanderson",
    "state_code": "NT",
    "latitude": -12.3792,
    "longitude": 130.8784
  },
  {
    "place_name": "Marrara",
    "state_code": "NT",
    "latitude": -12.4004,
    "longitude": 130.8929
  },
  {
    "place_name": "Leanyer",
    "state_code": "NT",
    "latitude": -12.3667,
    "longitude": 130.9
  },
  {
    "place_name": "Anula",
    "state_code": "NT",
    "latitude": -12.3912,
    "longitude": 130.8905
  },
  {
    "place_name": "Woodleigh Gardens",
    "state_code": "NT",
    "latitude": -12.3792,
    "longitude": 130.8784
  },
  {
    "place_name": "Malak",
    "state_code": "NT",
    "latitude": -12.3929,
    "longitude": 130.904
  },
  {
    "place_name": "Buffalo Creek",
    "state_code": "NT",
    "latitude": -12.3368,
    "longitude": 130.9054
  },
  {
    "place_name": "Holmes",
    "state_code": "NT",
    "latitude": -37.814,
    "longitude": 144.9633
  },
  {
    "place_name": "Karama",
    "state_code": "NT",
    "latitude": -12.4022,
    "longitude": 130.916
  },
  {
    "place_name": "Wulagi",
    "state_code": "NT",
    "latitude": -12.3834,
    "longitude": 130.8954
  },
  {
    "place_name": "Sanderson",
    "state_code": "NT",
    "latitude": -12.3792,
    "longitude": 130.8784
  },
  {
    "place_name": "Karama",
    "state_code": "NT",
    "latitude": -12.4022,
    "longitude": 130.916
  },
  {
    "place_name": "Nightcliff",
    "state_code": "NT",
    "latitude": -12.383,
    "longitude": 130.8517
  },
  {
    "place_name": "Charles Darwin University",
    "state_code": "NT",
    "latitude": -12.3792,
    "longitude": 130.8784
  },
  {
    "place_name": "Winnellie",
    "state_code": "NT",
    "latitude": -12.4292,
    "longitude": 130.8859
  },
  {
    "place_name": "East Point",
    "state_code": "NT",
    "latitude": -12.4078,
    "longitude": 130.8194
  },
  {
    "place_name": "Bagot",
    "state_code": "NT",
    "latitude": -12.4153,
    "longitude": 130.8568
  },
  {
    "place_name": "Charles Darwin",
    "state_code": "NT",
    "latitude": -12.4338,
    "longitude": 130.8737
  },
  {
    "place_name": "Darwin DC",
    "state_code": "NT",
    "latitude": -12.4252,
    "longitude": 130.8697
  },
  {
    "place_name": "Coonawarra",
    "state_code": "NT",
    "latitude": -12.4341,
    "longitude": 130.9098
  },
  {
    "place_name": "Stuart Park",
    "state_code": "NT",
    "latitude": -12.445,
    "longitude": 130.843
  },
  {
    "place_name": "Ludmilla",
    "state_code": "NT",
    "latitude": -12.4203,
    "longitude": 130.8551
  },
  {
    "place_name": "Darwin International Airport",
    "state_code": "NT",
    "latitude": -12.4252,
    "longitude": 130.8697
  },
  {
    "place_name": "Fannie Bay",
    "state_code": "NT",
    "latitude": -12.4227,
    "longitude": 130.8363
  },
  {
    "place_name": "The Gardens",
    "state_code": "NT",
    "latitude": -12.449,
    "longitude": 130.8316
  },
  {
    "place_name": "Larrakeyah",
    "state_code": "NT",
    "latitude": -12.4553,
    "longitude": 130.8317
  },
  {
    "place_name": "Eaton",
    "state_code": "NT",
    "latitude": -12.4124,
    "longitude": 130.8807
  },
  {
    "place_name": "Bayview",
    "state_code": "NT",
    "latitude": -12.4336,
    "longitude": 130.857
  },
  {
    "place_name": "Woolner",
    "state_code": "NT",
    "latitude": -12.4354,
    "longitude": 130.8479
  },
  {
    "place_name": "Parap",
    "state_code": "NT",
    "latitude": -12.4305,
    "longitude": 130.8414
  },
  {
    "place_name": "The Narrows",
    "state_code": "NT",
    "latitude": -12.4264,
    "longitude": 130.8595
  },
  {
    "place_name": "Winnellie",
    "state_code": "NT",
    "latitude": -12.4292,
    "longitude": 130.8859
  },
  {
    "place_name": "Milyakburra",
    "state_code": "NT",
    "latitude": -13.7794,
    "longitude": 136.2019
  },
  {
    "place_name": "Blackmore",
    "state_code": "NT",
    "latitude": -12.7593,
    "longitude": 130.9382
  },
  {
    "place_name": "Murrumujuk",
    "state_code": "NT",
    "latitude": -12.2609,
    "longitude": 131.0717
  },
  {
    "place_name": "Maningrida",
    "state_code": "NT",
    "latitude": -12.0674,
    "longitude": 134.0866
  },
  {
    "place_name": "Nganmarriyanga",
    "state_code": "NT",
    "latitude": -14.335,
    "longitude": 129.8835
  },
  {
    "place_name": "Gunbalanya",
    "state_code": "NT",
    "latitude": -12.3247,
    "longitude": 133.0509
  },
  {
    "place_name": "Tiwi Islands",
    "state_code": "NT",
    "latitude": -11.5602,
    "longitude": 130.8174
  },
  {
    "place_name": "Coomalie Creek",
    "state_code": "NT",
    "latitude": -12.6978,
    "longitude": 130.8459
  },
  {
    "place_name": "Darwin River Dam",
    "state_code": "NT",
    "latitude": -12.6978,
    "longitude": 130.8459
  },
  {
    "place_name": "Acacia Hills",
    "state_code": "NT",
    "latitude": -12.7941,
    "longitude": 131.1254
  },
  {
    "place_name": "Charles Darwin",
    "state_code": "NT",
    "latitude": -12.4338,
    "longitude": 130.8737
  },
  {
    "place_name": "Anindilyakwa",
    "state_code": "NT",
    "latitude": -12.6978,
    "longitude": 130.8459
  },
  {
    "place_name": "Daly River",
    "state_code": "NT",
    "latitude": -13.7654,
    "longitude": 130.7123
  },
  {
    "place_name": "Lloyd Creek",
    "state_code": "NT",
    "latitude": -12.6767,
    "longitude": 131.1338
  },
  {
    "place_name": "Mandorah",
    "state_code": "NT",
    "latitude": -12.4457,
    "longitude": 130.7574
  },
  {
    "place_name": "Thamarrurr",
    "state_code": "NT",
    "latitude": -14.2032,
    "longitude": 129.7052
  },
  {
    "place_name": "East Arnhem",
    "state_code": "NT",
    "latitude": -12.6978,
    "longitude": 130.8459
  },
  {
    "place_name": "Wickham",
    "state_code": "NT",
    "latitude": -12.5539,
    "longitude": 130.9223
  },
  {
    "place_name": "Numbulwar",
    "state_code": "NT",
    "latitude": -14.2761,
    "longitude": 135.7372
  },
  {
    "place_name": "Darwin Mc",
    "state_code": "NT",
    "latitude": -13.0616,
    "longitude": 132.8034
  },
  {
    "place_name": "Nauiyu",
    "state_code": "NT",
    "latitude": -13.7425,
    "longitude": 130.6956
  },
  {
    "place_name": "Tumbling Waters",
    "state_code": "NT",
    "latitude": -12.7685,
    "longitude": 130.95
  },
  {
    "place_name": "Kakadu",
    "state_code": "NT",
    "latitude": -12.8685,
    "longitude": 132.474
  },
  {
    "place_name": "Bathurst Island",
    "state_code": "NT",
    "latitude": -12.6978,
    "longitude": 130.8459
  },
  {
    "place_name": "Wadeye",
    "state_code": "NT",
    "latitude": -14.2383,
    "longitude": 129.5218
  },
  {
    "place_name": "Hughes",
    "state_code": "NT",
    "latitude": -12.7007,
    "longitude": 131.0981
  },
  {
    "place_name": "Marrakai",
    "state_code": "NT",
    "latitude": -12.7505,
    "longitude": 131.4806
  },
  {
    "place_name": "Delissaville",
    "state_code": "NT",
    "latitude": -13.0616,
    "longitude": 132.8034
  },
  {
    "place_name": "Pularumpi",
    "state_code": "NT",
    "latitude": -11.4049,
    "longitude": 130.4156
  },
  {
    "place_name": "Pirlangimpi",
    "state_code": "NT",
    "latitude": -11.403,
    "longitude": 130.429
  },
  {
    "place_name": "Croker Island",
    "state_code": "NT",
    "latitude": -13.0616,
    "longitude": 132.8034
  },
  {
    "place_name": "Peppimenarti",
    "state_code": "NT",
    "latitude": -14.1555,
    "longitude": 130.0815
  },
  {
    "place_name": "Douglas-Daly",
    "state_code": "NT",
    "latitude": -12.6978,
    "longitude": 130.8459
  },
  {
    "place_name": "Numburindi",
    "state_code": "NT",
    "latitude": -13.9293,
    "longitude": 135.704
  },
  {
    "place_name": "Litchfield Park",
    "state_code": "NT",
    "latitude": -12.6978,
    "longitude": 130.8459
  },
  {
    "place_name": "Wurrumiyanga",
    "state_code": "NT",
    "latitude": -11.7608,
    "longitude": 130.6256
  },
  {
    "place_name": "Nemarluk",
    "state_code": "NT",
    "latitude": -14.2768,
    "longitude": 130.3759
  },
  {
    "place_name": "West Arnhem",
    "state_code": "NT",
    "latitude": -12.2352,
    "longitude": 134.0603
  },
  {
    "place_name": "Umbakumba",
    "state_code": "NT",
    "latitude": -13.0616,
    "longitude": 132.8034
  },
  {
    "place_name": "Charlotte",
    "state_code": "NT",
    "latitude": -12.6978,
    "longitude": 130.8459
  },
  {
    "place_name": "Hidden Valley",
    "state_code": "NT",
    "latitude": -12.4424,
    "longitude": 130.9094
  },
  {
    "place_name": "Southport",
    "state_code": "NT",
    "latitude": -12.7218,
    "longitude": 130.9514
  },
  {
    "place_name": "Bynoe Harbour",
    "state_code": "NT",
    "latitude": -12.6978,
    "longitude": 130.8459
  },
  {
    "place_name": "Warruwi",
    "state_code": "NT",
    "latitude": -11.6457,
    "longitude": 133.3884
  },
  {
    "place_name": "Angurugu",
    "state_code": "NT",
    "latitude": -13.0616,
    "longitude": 132.8034
  },
  {
    "place_name": "Cox Peninsula",
    "state_code": "NT",
    "latitude": -12.4268,
    "longitude": 130.6408
  },
  {
    "place_name": "Bynoe",
    "state_code": "NT",
    "latitude": -12.6978,
    "longitude": 130.8459
  },
  {
    "place_name": "Black Jungle",
    "state_code": "NT",
    "latitude": -12.5138,
    "longitude": 131.2193
  },
  {
    "place_name": "Weddell",
    "state_code": "NT",
    "latitude": -12.6978,
    "longitude": 130.8459
  },
  {
    "place_name": "Fly Creek",
    "state_code": "NT",
    "latitude": -12.776,
    "longitude": 131.0445
  },
  {
    "place_name": "Claravale",
    "state_code": "NT",
    "latitude": -12.6978,
    "longitude": 130.8459
  },
  {
    "place_name": "Goulburn Island",
    "state_code": "NT",
    "latitude": -11.65,
    "longitude": 133.3883
  },
  {
    "place_name": "Mcminns Lagoon",
    "state_code": "NT",
    "latitude": -12.554,
    "longitude": 131.1116
  },
  {
    "place_name": "Lambells Lagoon",
    "state_code": "NT",
    "latitude": -12.5845,
    "longitude": 131.2503
  },
  {
    "place_name": "East Arm",
    "state_code": "NT",
    "latitude": -12.6978,
    "longitude": 130.8459
  },
  {
    "place_name": "Bees Creek",
    "state_code": "NT",
    "latitude": -12.5795,
    "longitude": 131.0593
  },
  {
    "place_name": "Finniss Valley",
    "state_code": "NT",
    "latitude": -12.6978,
    "longitude": 130.8459
  },
  {
    "place_name": "Livingstone",
    "state_code": "NT",
    "latitude": -12.6814,
    "longitude": 131.0741
  },
  {
    "place_name": "Tipperary",
    "state_code": "NT",
    "latitude": -12.6978,
    "longitude": 130.8459
  },
  {
    "place_name": "Annie River",
    "state_code": "NT",
    "latitude": -12.6978,
    "longitude": 130.8459
  },
  {
    "place_name": "Tortilla Flats",
    "state_code": "NT",
    "latitude": -12.6978,
    "longitude": 130.8459
  },
  {
    "place_name": "Burrundie",
    "state_code": "NT",
    "latitude": -12.6978,
    "longitude": 130.8459
  },
  {
    "place_name": "Tivendale",
    "state_code": "NT",
    "latitude": -12.6978,
    "longitude": 130.8459
  },
  {
    "place_name": "Nguiu",
    "state_code": "NT",
    "latitude": -11.7604,
    "longitude": 130.636
  },
  {
    "place_name": "Vernon Islands",
    "state_code": "NT",
    "latitude": -12.6978,
    "longitude": 130.8459
  },
  {
    "place_name": "Minjilang",
    "state_code": "NT",
    "latitude": -11.1584,
    "longitude": 132.5453
  },
  {
    "place_name": "Stapleton",
    "state_code": "NT",
    "latitude": -12.6978,
    "longitude": 130.8459
  },
  {
    "place_name": "Oenpelli",
    "state_code": "NT",
    "latitude": -12.3237,
    "longitude": 133.0576
  },
  {
    "place_name": "Rakula",
    "state_code": "NT",
    "latitude": -12.6978,
    "longitude": 130.8459
  },
  {
    "place_name": "Galiwinku",
    "state_code": "NT",
    "latitude": -12.0281,
    "longitude": 135.5649
  },
  {
    "place_name": "Robin Falls",
    "state_code": "NT",
    "latitude": -12.6978,
    "longitude": 130.8459
  },
  {
    "place_name": "Channel Island",
    "state_code": "NT",
    "latitude": -12.5533,
    "longitude": 130.8685
  },
  {
    "place_name": "Wak Wak",
    "state_code": "NT",
    "latitude": -12.6978,
    "longitude": 130.8459
  },
  {
    "place_name": "Milingimbi",
    "state_code": "NT",
    "latitude": -12.1019,
    "longitude": 134.919
  },
  {
    "place_name": "Glyde Point",
    "state_code": "NT",
    "latitude": -12.6978,
    "longitude": 130.8459
  },
  {
    "place_name": "Camp Creek",
    "state_code": "NT",
    "latitude": -12.6978,
    "longitude": 130.8459
  },
  {
    "place_name": "Eva Valley",
    "state_code": "NT",
    "latitude": -12.6978,
    "longitude": 130.8459
  },
  {
    "place_name": "Winnellie",
    "state_code": "NT",
    "latitude": -12.4292,
    "longitude": 130.8859
  },
  {
    "place_name": "Daly",
    "state_code": "NT",
    "latitude": -12.6978,
    "longitude": 130.8459
  },
  {
    "place_name": "Hotham",
    "state_code": "NT",
    "latitude": -12.6978,
    "longitude": 130.8459
  },
  {
    "place_name": "Hayes Creek",
    "state_code": "NT",
    "latitude": -12.6978,
    "longitude": 130.8459
  },
  {
    "place_name": "Ramingining",
    "state_code": "NT",
    "latitude": -13.0616,
    "longitude": 132.8034
  },
  {
    "place_name": "Mapuru",
    "state_code": "NT",
    "latitude": -12.6978,
    "longitude": 130.8459
  },
  {
    "place_name": "Freds Pass",
    "state_code": "NT",
    "latitude": -12.5394,
    "longitude": 131.0569
  },
  {
    "place_name": "Middle Point",
    "state_code": "NT",
    "latitude": -12.6978,
    "longitude": 130.8459
  },
  {
    "place_name": "Koolpinyah",
    "state_code": "NT",
    "latitude": -12.6978,
    "longitude": 130.8459
  },
  {
    "place_name": "Wagait Beach",
    "state_code": "NT",
    "latitude": -12.4348,
    "longitude": 130.7443
  },
  {
    "place_name": "Mickett Creek",
    "state_code": "NT",
    "latitude": -12.6978,
    "longitude": 130.8459
  },
  {
    "place_name": "Point Stephens",
    "state_code": "NT",
    "latitude": -12.6978,
    "longitude": 130.8459
  },
  {
    "place_name": "Belyuen",
    "state_code": "NT",
    "latitude": -12.5381,
    "longitude": 130.6982
  },
  {
    "place_name": "Margaret River",
    "state_code": "NT",
    "latitude": -12.6978,
    "longitude": 130.8459
  },
  {
    "place_name": "Woolaning",
    "state_code": "NT",
    "latitude": -12.6978,
    "longitude": 130.8459
  },
  {
    "place_name": "Wishart",
    "state_code": "NT",
    "latitude": -12.6978,
    "longitude": 130.8459
  },
  {
    "place_name": "Collett Creek",
    "state_code": "NT",
    "latitude": -12.6978,
    "longitude": 130.8459
  },
  {
    "place_name": "Maranunga",
    "state_code": "NT",
    "latitude": -12.6978,
    "longitude": 130.8459
  },
  {
    "place_name": "Milikapiti",
    "state_code": "NT",
    "latitude": -11.4255,
    "longitude": 130.6748
  },
  {
    "place_name": "Lake Bennett",
    "state_code": "NT",
    "latitude": -12.6978,
    "longitude": 130.8459
  },
  {
    "place_name": "Cobourg",
    "state_code": "NT",
    "latitude": -12.6978,
    "longitude": 130.8459
  },
  {
    "place_name": "Fleming",
    "state_code": "NT",
    "latitude": -12.6978,
    "longitude": 130.8459
  },
  {
    "place_name": "Sandpalms Roadhouse",
    "state_code": "NT",
    "latitude": -12.6978,
    "longitude": 130.8459
  },
  {
    "place_name": "Gunn Point",
    "state_code": "NT",
    "latitude": -12.6978,
    "longitude": 130.8459
  },
  {
    "place_name": "Point Stuart",
    "state_code": "NT",
    "latitude": -12.6978,
    "longitude": 130.8459
  },
  {
    "place_name": "Mount Bundey",
    "state_code": "NT",
    "latitude": -12.6978,
    "longitude": 130.8459
  },
  {
    "place_name": "Rum Jungle",
    "state_code": "NT",
    "latitude": -12.6978,
    "longitude": 130.8459
  },
  {
    "place_name": "Elrundie",
    "state_code": "NT",
    "latitude": -12.4789,
    "longitude": 130.9599
  },
  {
    "place_name": "Berrimah",
    "state_code": "NT",
    "latitude": -12.4351,
    "longitude": 130.9261
  },
  {
    "place_name": "Knuckey Lagoon",
    "state_code": "NT",
    "latitude": -12.4266,
    "longitude": 130.9457
  },
  {
    "place_name": "Pinelands",
    "state_code": "NT",
    "latitude": -12.4576,
    "longitude": 130.9598
  },
  {
    "place_name": "Holtze",
    "state_code": "NT",
    "latitude": -12.4485,
    "longitude": 131.0056
  },
  {
    "place_name": "Driver",
    "state_code": "NT",
    "latitude": -12.486,
    "longitude": 130.9754
  },
  {
    "place_name": "Archer",
    "state_code": "NT",
    "latitude": -12.5144,
    "longitude": 130.9688
  },
  {
    "place_name": "Shoal Bay",
    "state_code": "NT",
    "latitude": -12.4731,
    "longitude": 130.9721
  },
  {
    "place_name": "Marlow Lagoon",
    "state_code": "NT",
    "latitude": -12.4913,
    "longitude": 130.9641
  },
  {
    "place_name": "Farrar",
    "state_code": "NT",
    "latitude": -12.4803,
    "longitude": 130.9982
  },
  {
    "place_name": "Durack",
    "state_code": "NT",
    "latitude": -12.4731,
    "longitude": 130.9721
  },
  {
    "place_name": "Palmerston",
    "state_code": "NT",
    "latitude": -12.486,
    "longitude": 130.9833
  },
  {
    "place_name": "Gray",
    "state_code": "NT",
    "latitude": -12.4904,
    "longitude": 130.9823
  },
  {
    "place_name": "Woodroffe",
    "state_code": "NT",
    "latitude": -12.5017,
    "longitude": 130.9802
  },
  {
    "place_name": "Moulden",
    "state_code": "NT",
    "latitude": -12.5056,
    "longitude": 130.9731
  },
  {
    "place_name": "Yarrawonga",
    "state_code": "NT",
    "latitude": -12.4725,
    "longitude": 130.9884
  },
  {
    "place_name": "Palmerston",
    "state_code": "NT",
    "latitude": -12.486,
    "longitude": 130.9833
  },
  {
    "place_name": "Zuccoli",
    "state_code": "NT",
    "latitude": -12.4876,
    "longitude": 131.0117
  },
  {
    "place_name": "Bakewell",
    "state_code": "NT",
    "latitude": -12.4968,
    "longitude": 130.9934
  },
  {
    "place_name": "Johnston",
    "state_code": "NT",
    "latitude": -12.4876,
    "longitude": 131.0117
  },
  {
    "place_name": "Gunn",
    "state_code": "NT",
    "latitude": -12.4876,
    "longitude": 130.9932
  },
  {
    "place_name": "Rosebery",
    "state_code": "NT",
    "latitude": -12.5105,
    "longitude": 130.9878
  },
  {
    "place_name": "Mitchell",
    "state_code": "NT",
    "latitude": -12.4986,
    "longitude": 130.9984
  },
  {
    "place_name": "Rosebery Heights",
    "state_code": "NT",
    "latitude": -12.4876,
    "longitude": 131.0117
  },
  {
    "place_name": "Bellamack",
    "state_code": "NT",
    "latitude": -12.5171,
    "longitude": 130.9836
  },
  {
    "place_name": "Virginia",
    "state_code": "NT",
    "latitude": -12.519,
    "longitude": 131.0284
  },
  {
    "place_name": "Coolalinga",
    "state_code": "NT",
    "latitude": -12.5231,
    "longitude": 131.0415
  },
  {
    "place_name": "Howard Springs",
    "state_code": "NT",
    "latitude": -12.4958,
    "longitude": 131.0445
  },
  {
    "place_name": "Virginia",
    "state_code": "NT",
    "latitude": -12.519,
    "longitude": 131.0284
  },
  {
    "place_name": "Girraween",
    "state_code": "NT",
    "latitude": -12.5253,
    "longitude": 131.0957
  },
  {
    "place_name": "Humpty Doo",
    "state_code": "NT",
    "latitude": -12.5841,
    "longitude": 131.1367
  },
  {
    "place_name": "Herbert",
    "state_code": "NT",
    "latitude": -12.5341,
    "longitude": 131.162
  },
  {
    "place_name": "Manton",
    "state_code": "NT",
    "latitude": -12.8937,
    "longitude": 131.1132
  },
  {
    "place_name": "Noonamah",
    "state_code": "NT",
    "latitude": -12.6312,
    "longitude": 131.0799
  },
  {
    "place_name": "Berry Springs",
    "state_code": "NT",
    "latitude": -12.6968,
    "longitude": 131.01
  },
  {
    "place_name": "Coolalinga",
    "state_code": "NT",
    "latitude": -12.5231,
    "longitude": 131.0415
  },
  {
    "place_name": "Dundee Beach",
    "state_code": "NT",
    "latitude": -12.7176,
    "longitude": 130.3513
  },
  {
    "place_name": "Dundee Downs",
    "state_code": "NT",
    "latitude": -12.7522,
    "longitude": 130.5154
  },
  {
    "place_name": "Dundee Forest",
    "state_code": "NT",
    "latitude": -12.7168,
    "longitude": 130.4475
  },
  {
    "place_name": "Darwin River",
    "state_code": "NT",
    "latitude": -12.8193,
    "longitude": 130.9697
  },
  {
    "place_name": "Batchelor",
    "state_code": "NT",
    "latitude": -13.0505,
    "longitude": 131.0307
  },
  {
    "place_name": "Adelaide River",
    "state_code": "NT",
    "latitude": -13.2379,
    "longitude": 131.1056
  },
  {
    "place_name": "Pine Creek",
    "state_code": "NT",
    "latitude": -13.8208,
    "longitude": 131.8329
  },
  {
    "place_name": "Cossack",
    "state_code": "NT",
    "latitude": -14.4555,
    "longitude": 132.1748
  },
  {
    "place_name": "Katherine",
    "state_code": "NT",
    "latitude": -14.4652,
    "longitude": 132.2635
  },
  {
    "place_name": "Katherine South",
    "state_code": "NT",
    "latitude": -14.4435,
    "longitude": 132.2814
  },
  {
    "place_name": "Lansdowne",
    "state_code": "NT",
    "latitude": -14.4314,
    "longitude": 132.3879
  },
  {
    "place_name": "Emungalan",
    "state_code": "NT",
    "latitude": -14.4435,
    "longitude": 132.2814
  },
  {
    "place_name": "Katherine East",
    "state_code": "NT",
    "latitude": -14.4435,
    "longitude": 132.2814
  },
  {
    "place_name": "Katherine",
    "state_code": "NT",
    "latitude": -14.4652,
    "longitude": 132.2635
  },
  {
    "place_name": "Yarralin",
    "state_code": "NT",
    "latitude": -16.4526,
    "longitude": 130.8419
  },
  {
    "place_name": "Beswick",
    "state_code": "NT",
    "latitude": -14.558,
    "longitude": 133.1151
  },
  {
    "place_name": "Barunga",
    "state_code": "NT",
    "latitude": -14.5196,
    "longitude": 132.8644
  },
  {
    "place_name": "Wave Hill",
    "state_code": "NT",
    "latitude": -17.4476,
    "longitude": 130.8344
  },
  {
    "place_name": "Jilkminggan",
    "state_code": "NT",
    "latitude": -14.9615,
    "longitude": 133.2928
  },
  {
    "place_name": "Maranboy",
    "state_code": "NT",
    "latitude": -14.5333,
    "longitude": 132.7833
  },
  {
    "place_name": "Daguragu",
    "state_code": "NT",
    "latitude": -17.4193,
    "longitude": 130.8021
  },
  {
    "place_name": "Wilton",
    "state_code": "NT",
    "latitude": -15.0045,
    "longitude": 133.3768
  },
  {
    "place_name": "Numbulwar",
    "state_code": "NT",
    "latitude": -14.2761,
    "longitude": 135.7372
  },
  {
    "place_name": "Ngukurr",
    "state_code": "NT",
    "latitude": -14.7308,
    "longitude": 134.731
  },
  {
    "place_name": "Baines",
    "state_code": "NT",
    "latitude": -15.9828,
    "longitude": 129.4996
  },
  {
    "place_name": "Uralla",
    "state_code": "NT",
    "latitude": -14.4911,
    "longitude": 132.2983
  },
  {
    "place_name": "Gregory",
    "state_code": "NT",
    "latitude": -15.0045,
    "longitude": 133.3768
  },
  {
    "place_name": "Victoria River Downs",
    "state_code": "NT",
    "latitude": -16.0432,
    "longitude": 132.4219
  },
  {
    "place_name": "Venn",
    "state_code": "NT",
    "latitude": -15.0045,
    "longitude": 133.3768
  },
  {
    "place_name": "Timber Creek",
    "state_code": "NT",
    "latitude": -15.6625,
    "longitude": 130.4804
  },
  {
    "place_name": "Edith",
    "state_code": "NT",
    "latitude": -15.0045,
    "longitude": 133.3768
  },
  {
    "place_name": "Binjari",
    "state_code": "NT",
    "latitude": -14.5501,
    "longitude": 132.1842
  },
  {
    "place_name": "Manbulloo",
    "state_code": "NT",
    "latitude": -15.0045,
    "longitude": 133.3768
  },
  {
    "place_name": "Top Springs",
    "state_code": "NT",
    "latitude": -16.5438,
    "longitude": 131.7977
  },
  {
    "place_name": "Gurindji",
    "state_code": "NT",
    "latitude": -15.0045,
    "longitude": 133.3768
  },
  {
    "place_name": "Bulman Weemol",
    "state_code": "NT",
    "latitude": -15.0045,
    "longitude": 133.3768
  },
  {
    "place_name": "Kalkarindji",
    "state_code": "NT",
    "latitude": -17.4476,
    "longitude": 130.8344
  },
  {
    "place_name": "Limmen",
    "state_code": "NT",
    "latitude": -15.5241,
    "longitude": 134.8004
  },
  {
    "place_name": "Birdum",
    "state_code": "NT",
    "latitude": -15.65,
    "longitude": 133.2167
  },
  {
    "place_name": "Arnold",
    "state_code": "NT",
    "latitude": -15.0045,
    "longitude": 133.3768
  },
  {
    "place_name": "Elsey",
    "state_code": "NT",
    "latitude": -15.0045,
    "longitude": 133.3768
  },
  {
    "place_name": "Bradshaw",
    "state_code": "NT",
    "latitude": -15.0045,
    "longitude": 133.3768
  },
  {
    "place_name": "Creswell",
    "state_code": "NT",
    "latitude": -15.0045,
    "longitude": 133.3768
  },
  {
    "place_name": "Tanami East",
    "state_code": "NT",
    "latitude": -15.0045,
    "longitude": 133.3768
  },
  {
    "place_name": "Delamere",
    "state_code": "NT",
    "latitude": -15.0045,
    "longitude": 133.3768
  },
  {
    "place_name": "Lajamanu",
    "state_code": "NT",
    "latitude": -16.0432,
    "longitude": 132.4219
  },
  {
    "place_name": "Flying Fox",
    "state_code": "NT",
    "latitude": -15.0045,
    "longitude": 133.3768
  },
  {
    "place_name": "Beswick Creek",
    "state_code": "NT",
    "latitude": -15.0045,
    "longitude": 133.3768
  },
  {
    "place_name": "Victoria River",
    "state_code": "NT",
    "latitude": -15.0045,
    "longitude": 133.3768
  },
  {
    "place_name": "Pellew Islands",
    "state_code": "NT",
    "latitude": -15.0045,
    "longitude": 133.3768
  },
  {
    "place_name": "Florina",
    "state_code": "NT",
    "latitude": -15.0045,
    "longitude": 133.3768
  },
  {
    "place_name": "Robinson River",
    "state_code": "NT",
    "latitude": -15.0045,
    "longitude": 133.3768
  },
  {
    "place_name": "Daly Waters",
    "state_code": "NT",
    "latitude": -16.2533,
    "longitude": 133.3693
  },
  {
    "place_name": "Larrimah",
    "state_code": "NT",
    "latitude": -16.0432,
    "longitude": 132.4219
  },
  {
    "place_name": "Gulung Mardrulk",
    "state_code": "NT",
    "latitude": -15.0045,
    "longitude": 133.3768
  },
  {
    "place_name": "Pigeon Hole",
    "state_code": "NT",
    "latitude": -15.0045,
    "longitude": 133.3768
  },
  {
    "place_name": "Miniyeri",
    "state_code": "NT",
    "latitude": -15.2255,
    "longitude": 134.0798
  },
  {
    "place_name": "Katherine",
    "state_code": "NT",
    "latitude": -14.4652,
    "longitude": 132.2635
  },
  {
    "place_name": "Mataranka",
    "state_code": "NT",
    "latitude": -14.9213,
    "longitude": 133.065
  },
  {
    "place_name": "Helen Springs Station",
    "state_code": "NT",
    "latitude": -15.0045,
    "longitude": 133.3768
  },
  {
    "place_name": "Mcarthur",
    "state_code": "NT",
    "latitude": -15.0045,
    "longitude": 133.3768
  },
  {
    "place_name": "Buchanan",
    "state_code": "NT",
    "latitude": -15.0045,
    "longitude": 133.3768
  },
  {
    "place_name": "Sturt Plateau",
    "state_code": "NT",
    "latitude": -15.0045,
    "longitude": 133.3768
  },
  {
    "place_name": "Warumungu",
    "state_code": "NT",
    "latitude": -15.0045,
    "longitude": 133.3768
  },
  {
    "place_name": "Nitmiluk",
    "state_code": "NT",
    "latitude": -15.0045,
    "longitude": 133.3768
  },
  {
    "place_name": "Tindal",
    "state_code": "NT",
    "latitude": -14.5312,
    "longitude": 132.3793
  },
  {
    "place_name": "Tindal Raaf",
    "state_code": "NT",
    "latitude": -14.5733,
    "longitude": 132.54
  },
  {
    "place_name": "King Ash Bay",
    "state_code": "NT",
    "latitude": -14.8923,
    "longitude": 133.1577
  },
  {
    "place_name": "Borroloola",
    "state_code": "NT",
    "latitude": -16.0703,
    "longitude": 136.3087
  },
  {
    "place_name": "Tennant Creek",
    "state_code": "NT",
    "latitude": -19.6548,
    "longitude": 134.1871
  },
  {
    "place_name": "Tennant Creek",
    "state_code": "NT",
    "latitude": -23.7,
    "longitude": 133.8833
  },
  {
    "place_name": "Warrego",
    "state_code": "NT",
    "latitude": -19.4362,
    "longitude": 133.8208
  },
  {
    "place_name": "Tennant Creek",
    "state_code": "NT",
    "latitude": -19.6497,
    "longitude": 134.1915
  },
  {
    "place_name": "Newcastle Waters",
    "state_code": "NT",
    "latitude": -18.9889,
    "longitude": 135.0004
  },
  {
    "place_name": "Renner Springs",
    "state_code": "NT",
    "latitude": -37.8421,
    "longitude": 145.0694
  },
  {
    "place_name": "Calvert",
    "state_code": "NT",
    "latitude": -16.9206,
    "longitude": 137.2034
  },
  {
    "place_name": "Tablelands",
    "state_code": "NT",
    "latitude": -37.8421,
    "longitude": 145.0694
  },
  {
    "place_name": "Nicholson",
    "state_code": "NT",
    "latitude": -37.8421,
    "longitude": 145.0694
  },
  {
    "place_name": "Pamayu",
    "state_code": "NT",
    "latitude": -37.8421,
    "longitude": 145.0694
  },
  {
    "place_name": "Elliott",
    "state_code": "NT",
    "latitude": -17.5507,
    "longitude": 133.5407
  },
  {
    "place_name": "Stuart",
    "state_code": "NT",
    "latitude": -23.6975,
    "longitude": 133.8836
  },
  {
    "place_name": "Ross",
    "state_code": "NT",
    "latitude": -23.7442,
    "longitude": 133.9036
  },
  {
    "place_name": "Larapinta",
    "state_code": "NT",
    "latitude": -23.6803,
    "longitude": 133.8311
  },
  {
    "place_name": "Araluen",
    "state_code": "NT",
    "latitude": -23.696,
    "longitude": 133.854
  },
  {
    "place_name": "Mount Johns",
    "state_code": "NT",
    "latitude": -23.7232,
    "longitude": 133.913
  },
  {
    "place_name": "Flynn",
    "state_code": "NT",
    "latitude": -23.7135,
    "longitude": 133.8356
  },
  {
    "place_name": "The Gap",
    "state_code": "NT",
    "latitude": -23.7133,
    "longitude": 133.8739
  },
  {
    "place_name": "Sadadeen",
    "state_code": "NT",
    "latitude": -23.704,
    "longitude": 133.9004
  },
  {
    "place_name": "East Side",
    "state_code": "NT",
    "latitude": -23.692,
    "longitude": 133.8932
  },
  {
    "place_name": "Arumbera",
    "state_code": "NT",
    "latitude": -23.7,
    "longitude": 133.874
  },
  {
    "place_name": "Connellan",
    "state_code": "NT",
    "latitude": -23.7,
    "longitude": 133.874
  },
  {
    "place_name": "Alice Springs",
    "state_code": "NT",
    "latitude": -23.735,
    "longitude": 133.8548
  },
  {
    "place_name": "Irlpme",
    "state_code": "NT",
    "latitude": -23.6469,
    "longitude": 133.8648
  },
  {
    "place_name": "Ilparpa",
    "state_code": "NT",
    "latitude": -23.7,
    "longitude": 133.874
  },
  {
    "place_name": "Undoolya",
    "state_code": "NT",
    "latitude": -23.7,
    "longitude": 133.874
  },
  {
    "place_name": "Gillen",
    "state_code": "NT",
    "latitude": -23.7092,
    "longitude": 133.866
  },
  {
    "place_name": "Ciccone",
    "state_code": "NT",
    "latitude": -23.7,
    "longitude": 133.874
  },
  {
    "place_name": "White Gums",
    "state_code": "NT",
    "latitude": -23.7,
    "longitude": 133.874
  },
  {
    "place_name": "Braitling",
    "state_code": "NT",
    "latitude": -23.68,
    "longitude": 133.8688
  },
  {
    "place_name": "Desert Springs",
    "state_code": "NT",
    "latitude": -23.7,
    "longitude": 133.874
  },
  {
    "place_name": "Alice Springs",
    "state_code": "NT",
    "latitude": -23.7,
    "longitude": 133.8833
  },
  {
    "place_name": "Ampilatwatja",
    "state_code": "NT",
    "latitude": -21.657,
    "longitude": 135.2259
  },
  {
    "place_name": "Wilora",
    "state_code": "NT",
    "latitude": -21.7443,
    "longitude": 133.7265
  },
  {
    "place_name": "Barrow Creek",
    "state_code": "NT",
    "latitude": -21.55,
    "longitude": 133.8833
  },
  {
    "place_name": "Hale",
    "state_code": "NT",
    "latitude": -23.3256,
    "longitude": 133.0557
  },
  {
    "place_name": "Laramba",
    "state_code": "NT",
    "latitude": -22.5434,
    "longitude": 132.7624
  },
  {
    "place_name": "Ali Curung",
    "state_code": "NT",
    "latitude": -21.0199,
    "longitude": 134.3249
  },
  {
    "place_name": "Wallace Rockhole",
    "state_code": "NT",
    "latitude": -24.1242,
    "longitude": 133.091
  },
  {
    "place_name": "Yuendumu",
    "state_code": "NT",
    "latitude": -22.2667,
    "longitude": 131.8167
  },
  {
    "place_name": "Papunya",
    "state_code": "NT",
    "latitude": -23.2045,
    "longitude": 131.9122
  },
  {
    "place_name": "Tara",
    "state_code": "NT",
    "latitude": -21.4833,
    "longitude": 133.9992
  },
  {
    "place_name": "Davenport",
    "state_code": "NT",
    "latitude": -23.3256,
    "longitude": 133.0557
  },
  {
    "place_name": "Kulgera",
    "state_code": "NT",
    "latitude": -23.3256,
    "longitude": 133.0557
  },
  {
    "place_name": "Anmatjere",
    "state_code": "NT",
    "latitude": -23.3256,
    "longitude": 133.0557
  },
  {
    "place_name": "Wutunugurra",
    "state_code": "NT",
    "latitude": -20.4623,
    "longitude": 135.2505
  },
  {
    "place_name": "Namatjira",
    "state_code": "NT",
    "latitude": -23.3256,
    "longitude": 133.0557
  },
  {
    "place_name": "Canteen Creek",
    "state_code": "NT",
    "latitude": -20.6403,
    "longitude": 135.5865
  },
  {
    "place_name": "Hart",
    "state_code": "NT",
    "latitude": -23.3256,
    "longitude": 133.0557
  },
  {
    "place_name": "Burt Plain",
    "state_code": "NT",
    "latitude": -23.3256,
    "longitude": 133.0557
  },
  {
    "place_name": "Napperby Station",
    "state_code": "NT",
    "latitude": -23.3256,
    "longitude": 133.0557
  },
  {
    "place_name": "Engawala",
    "state_code": "NT",
    "latitude": -22.8031,
    "longitude": 134.4564
  },
  {
    "place_name": "Atitjere",
    "state_code": "NT",
    "latitude": -23.3256,
    "longitude": 133.0557
  },
  {
    "place_name": "Nyirripi",
    "state_code": "NT",
    "latitude": -22.6492,
    "longitude": 130.5639
  },
  {
    "place_name": "Imanpa",
    "state_code": "NT",
    "latitude": -25.1176,
    "longitude": 132.5688
  },
  {
    "place_name": "Sandover",
    "state_code": "NT",
    "latitude": -21.9596,
    "longitude": 135.5128
  },
  {
    "place_name": "Finke",
    "state_code": "NT",
    "latitude": -25.698,
    "longitude": 134.3397
  },
  {
    "place_name": "Tanami",
    "state_code": "NT",
    "latitude": -23.3256,
    "longitude": 133.0557
  },
  {
    "place_name": "Santa Teresa",
    "state_code": "NT",
    "latitude": -24.7306,
    "longitude": 135.3322
  },
  {
    "place_name": "Mutitjulu",
    "state_code": "NT",
    "latitude": -23.3256,
    "longitude": 133.0557
  },
  {
    "place_name": "Anatye",
    "state_code": "NT",
    "latitude": -23.3256,
    "longitude": 133.0557
  },
  {
    "place_name": "Costello",
    "state_code": "NT",
    "latitude": -14.5655,
    "longitude": 134.8794
  },
  {
    "place_name": "Erldunda",
    "state_code": "NT",
    "latitude": -23.3256,
    "longitude": 133.0557
  },
  {
    "place_name": "Chilla Well",
    "state_code": "NT",
    "latitude": -23.3256,
    "longitude": 133.0557
  },
  {
    "place_name": "Alice Springs",
    "state_code": "NT",
    "latitude": -23.7917,
    "longitude": 132.6818
  },
  {
    "place_name": "Titjikala",
    "state_code": "NT",
    "latitude": -24.6802,
    "longitude": 134.0751
  },
  {
    "place_name": "Areyonga",
    "state_code": "NT",
    "latitude": -24.1669,
    "longitude": 132.2868
  },
  {
    "place_name": "Willowra",
    "state_code": "NT",
    "latitude": -21.2632,
    "longitude": 132.6191
  },
  {
    "place_name": "Hart Range",
    "state_code": "NT",
    "latitude": -23.3256,
    "longitude": 133.0557
  },
  {
    "place_name": "Yuelamu",
    "state_code": "NT",
    "latitude": -22.2617,
    "longitude": 132.1994
  },
  {
    "place_name": "Ti Tree",
    "state_code": "NT",
    "latitude": -22.1338,
    "longitude": 133.4139
  },
  {
    "place_name": "Yulara",
    "state_code": "NT",
    "latitude": -25.242,
    "longitude": 130.9856
  },
  {
    "place_name": "Haasts Bluff",
    "state_code": "NT",
    "latitude": -23.5093,
    "longitude": 132.1852
  },
  {
    "place_name": "Mereenie",
    "state_code": "NT",
    "latitude": -23.3256,
    "longitude": 133.0557
  },
  {
    "place_name": "Mount Zeil",
    "state_code": "NT",
    "latitude": -23.3256,
    "longitude": 133.0557
  },
  {
    "place_name": "Kaltukatjara",
    "state_code": "NT",
    "latitude": -23.7917,
    "longitude": 132.6818
  },
  {
    "place_name": "Hermannsburg",
    "state_code": "NT",
    "latitude": -23.7917,
    "longitude": 132.6818
  },
  {
    "place_name": "Kings Creek Station",
    "state_code": "NT",
    "latitude": -23.3256,
    "longitude": 133.0557
  },
  {
    "place_name": "Kintore",
    "state_code": "NT",
    "latitude": -23.7917,
    "longitude": 132.6818
  },
  {
    "place_name": "Hugh",
    "state_code": "NT",
    "latitude": -23.3256,
    "longitude": 133.0557
  },
  {
    "place_name": "Telegraph Station",
    "state_code": "NT",
    "latitude": -23.3256,
    "longitude": 133.0557
  },
  {
    "place_name": "Lake Mackay",
    "state_code": "NT",
    "latitude": -23.3256,
    "longitude": 133.0557
  },
  {
    "place_name": "Ininti Store",
    "state_code": "NT",
    "latitude": -23.3256,
    "longitude": 133.0557
  },
  {
    "place_name": "Macdonnell Range",
    "state_code": "NT",
    "latitude": -23.3256,
    "longitude": 133.0557
  },
  {
    "place_name": "Simpson",
    "state_code": "NT",
    "latitude": -23.3256,
    "longitude": 133.0557
  },
  {
    "place_name": "Mount Liebig",
    "state_code": "NT",
    "latitude": -23.3256,
    "longitude": 133.0557
  },
  {
    "place_name": "Ghan",
    "state_code": "NT",
    "latitude": -23.3256,
    "longitude": 133.0557
  },
  {
    "place_name": "Kunparrka",
    "state_code": "NT",
    "latitude": -23.3611,
    "longitude": 131.6665
  },
  {
    "place_name": "Amoonguna",
    "state_code": "NT",
    "latitude": -23.7709,
    "longitude": 133.9365
  },
  {
    "place_name": "Petermann",
    "state_code": "NT",
    "latitude": -23.3256,
    "longitude": 133.0557
  },
  {
    "place_name": "Heavitree Gap Cpa",
    "state_code": "NT",
    "latitude": -23.5298,
    "longitude": 133.5021
  },
  {
    "place_name": "Nhulunbuy",
    "state_code": "NT",
    "latitude": -12.1816,
    "longitude": 136.7784
  },
  {
    "place_name": "Yirrkala",
    "state_code": "NT",
    "latitude": -12.2549,
    "longitude": 136.8899
  },
  {
    "place_name": "Gapuwiyak",
    "state_code": "NT",
    "latitude": -12.5031,
    "longitude": 135.8105
  },
  {
    "place_name": "Gunyangara",
    "state_code": "NT",
    "latitude": -12.2165,
    "longitude": 136.7054
  },
  {
    "place_name": "Nhulunbuy",
    "state_code": "NT",
    "latitude": -12.1816,
    "longitude": 136.7784
  },
  {
    "place_name": "Alyangula",
    "state_code": "NT",
    "latitude": -13.8541,
    "longitude": 136.4213
  },
  {
    "place_name": "Jabiru",
    "state_code": "NT",
    "latitude": -12.6705,
    "longitude": 132.836
  },
  {
    "place_name": "Winnellie",
    "state_code": "NT",
    "latitude": -12.4292,
    "longitude": 130.8859
  },
  {
    "place_name": "Winnellie",
    "state_code": "NT",
    "latitude": -12.4292,
    "longitude": 130.8859
  },
  {
    "place_name": "Charles Darwin University",
    "state_code": "NT",
    "latitude": -12.3731,
    "longitude": 130.8681
  },
  {
    "place_name": "Alpurrurulam",
    "state_code": "NT",
    "latitude": -20.1386,
    "longitude": 145.8436
  }
]